CCSDS_OMM_VERS = 2.0
CREATION_DATE  = 
ORIGINATOR     = 

OBJECT_NAME    = CZ-6A R/B
OBJECT_ID      = 2026-051B
CENTER_NAME    = EARTH
REF_FRAME      = TEME
TIME_SYSTEM    = UTC
MEAN_ELEMENT_THEORY = SGP/SGP4

EPOCH          = 2026-03-30T03:33:30.059712
MEAN_MOTION    = 14.56373520
ECCENTRICITY   = .01867889
INCLINATION    = 142.0317
RA_OF_ASC_NODE = 313.6765
ARG_OF_PERICENTER = 198.2173
MEAN_ANOMALY   = 161.1785

EPHEMERIS_TYPE = 0
CLASSIFICATION_TYPE = U
NORAD_CAT_ID   = 68197
ELEMENT_SET_NO = 999
REV_AT_EPOCH   = 214
BSTAR          = .14917719E-3
MEAN_MOTION_DOT = .1148E-4
MEAN_MOTION_DDOT = 0

CCSDS_OMM_VERS = 2.0
CREATION_DATE  = 
ORIGINATOR     = 

OBJECT_NAME    = 2026-052A
OBJECT_ID      = 2026-052A
CENTER_NAME    = EARTH
REF_FRAME      = TEME
TIME_SYSTEM    = UTC
MEAN_ELEMENT_THEORY = SGP/SGP4

EPOCH          = 2026-03-26T14:56:36.140064
MEAN_MOTION    = 15.09879016
ECCENTRICITY   = .00129773
INCLINATION    = 97.5376
RA_OF_ASC_NODE = 161.7059
ARG_OF_PERICENTER = 225.7685
MEAN_ANOMALY   = 134.2480

EPHEMERIS_TYPE = 0
CLASSIFICATION_TYPE = U
NORAD_CAT_ID   = 68198
ELEMENT_SET_NO = 999
REV_AT_EPOCH   = 158
BSTAR          = .3152876E-4
MEAN_MOTION_DOT = .448E-5
MEAN_MOTION_DDOT = 0

CCSDS_OMM_VERS = 2.0
CREATION_DATE  = 
ORIGINATOR     = 

OBJECT_NAME    = YUXING-3 06
OBJECT_ID      = 2026-052B
CENTER_NAME    = EARTH
REF_FRAME      = TEME
TIME_SYSTEM    = UTC
MEAN_ELEMENT_THEORY = SGP/SGP4

EPOCH          = 2026-03-30T06:23:09.145248
MEAN_MOTION    = 15.10113668
ECCENTRICITY   = .00121035
INCLINATION    = 97.5375
RA_OF_ASC_NODE = 165.2928
ARG_OF_PERICENTER = 213.8596
MEAN_ANOMALY   = 146.1861

EPHEMERIS_TYPE = 0
CLASSIFICATION_TYPE = U
NORAD_CAT_ID   = 68199
ELEMENT_SET_NO = 999
REV_AT_EPOCH   = 213
BSTAR          = .44412247E-3
MEAN_MOTION_DOT = .7189E-4
MEAN_MOTION_DDOT = 0

CCSDS_OMM_VERS = 2.0
CREATION_DATE  = 
ORIGINATOR     = 

OBJECT_NAME    = 2026-052C
OBJECT_ID      = 2026-052C
CENTER_NAME    = EARTH
REF_FRAME      = TEME
TIME_SYSTEM    = UTC
MEAN_ELEMENT_THEORY = SGP/SGP4

EPOCH          = 2026-03-30T06:21:23.675904
MEAN_MOTION    = 15.10235756
ECCENTRICITY   = .00118157
INCLINATION    = 97.5370
RA_OF_ASC_NODE = 165.2961
ARG_OF_PERICENTER = 216.4606
MEAN_ANOMALY   = 143.5820

EPHEMERIS_TYPE = 0
CLASSIFICATION_TYPE = U
NORAD_CAT_ID   = 68200
ELEMENT_SET_NO = 999
REV_AT_EPOCH   = 212
BSTAR          = .3845914E-3
MEAN_MOTION_DOT = .6236E-4
MEAN_MOTION_DDOT = 0

CCSDS_OMM_VERS = 2.0
CREATION_DATE  = 
ORIGINATOR     = 

OBJECT_NAME    = 2026-052D
OBJECT_ID      = 2026-052D
CENTER_NAME    = EARTH
REF_FRAME      = TEME
TIME_SYSTEM    = UTC
MEAN_ELEMENT_THEORY = SGP/SGP4

EPOCH          = 2026-03-30T06:19:04.030176
MEAN_MOTION    = 15.10450488
ECCENTRICITY   = .00110561
INCLINATION    = 97.5363
RA_OF_ASC_NODE = 165.2943
ARG_OF_PERICENTER = 212.6449
MEAN_ANOMALY   = 147.4098

EPHEMERIS_TYPE = 0
CLASSIFICATION_TYPE = U
NORAD_CAT_ID   = 68201
ELEMENT_SET_NO = 999
REV_AT_EPOCH   = 213
BSTAR          = .5907242E-3
MEAN_MOTION_DOT = .9673E-4
MEAN_MOTION_DDOT = 0

CCSDS_OMM_VERS = 2.0
CREATION_DATE  = 
ORIGINATOR     = 

OBJECT_NAME    = 2026-052E
OBJECT_ID      = 2026-052E
CENTER_NAME    = EARTH
REF_FRAME      = TEME
TIME_SYSTEM    = UTC
MEAN_ELEMENT_THEORY = SGP/SGP4

EPOCH          = 2026-03-30T06:19:02.291808
MEAN_MOTION    = 15.10449954
ECCENTRICITY   = .00108306
INCLINATION    = 97.5376
RA_OF_ASC_NODE = 165.2963
ARG_OF_PERICENTER = 216.8133
MEAN_ANOMALY   = 143.2354

EPHEMERIS_TYPE = 0
CLASSIFICATION_TYPE = U
NORAD_CAT_ID   = 68202
ELEMENT_SET_NO = 999
REV_AT_EPOCH   = 213
BSTAR          = .58276766E-3
MEAN_MOTION_DOT = .9541E-4
MEAN_MOTION_DDOT = 0

CCSDS_OMM_VERS = 2.0
CREATION_DATE  = 
ORIGINATOR     = 

OBJECT_NAME    = 2026-052F
OBJECT_ID      = 2026-052F
CENTER_NAME    = EARTH
REF_FRAME      = TEME
TIME_SYSTEM    = UTC
MEAN_ELEMENT_THEORY = SGP/SGP4

EPOCH          = 2026-03-30T06:15:39.276864
MEAN_MOTION    = 15.10705004
ECCENTRICITY   = .00101461
INCLINATION    = 97.5358
RA_OF_ASC_NODE = 165.3026
ARG_OF_PERICENTER = 208.5470
MEAN_ANOMALY   = 151.5205

EPHEMERIS_TYPE = 0
CLASSIFICATION_TYPE = U
NORAD_CAT_ID   = 68203
ELEMENT_SET_NO = 999
REV_AT_EPOCH   = 213
BSTAR          = .56823457E-3
MEAN_MOTION_DOT = .9365E-4
MEAN_MOTION_DDOT = 0

CCSDS_OMM_VERS = 2.0
CREATION_DATE  = 
ORIGINATOR     = 

OBJECT_NAME    = 2026-052G
OBJECT_ID      = 2026-052G
CENTER_NAME    = EARTH
REF_FRAME      = TEME
TIME_SYSTEM    = UTC
MEAN_ELEMENT_THEORY = SGP/SGP4

EPOCH          = 2026-03-30T06:15:00.072000
MEAN_MOTION    = 15.10752814
ECCENTRICITY   = .00097067
INCLINATION    = 97.5376
RA_OF_ASC_NODE = 165.2988
ARG_OF_PERICENTER = 211.5822
MEAN_ANOMALY   = 148.4826

EPHEMERIS_TYPE = 0
CLASSIFICATION_TYPE = U
NORAD_CAT_ID   = 68204
ELEMENT_SET_NO = 999
REV_AT_EPOCH   = 213
BSTAR          = .56717317E-3
MEAN_MOTION_DOT = .9359E-4
MEAN_MOTION_DDOT = 0

CCSDS_OMM_VERS = 2.0
CREATION_DATE  = 
ORIGINATOR     = 

OBJECT_NAME    = KZ-11 R/B
OBJECT_ID      = 2026-052H
CENTER_NAME    = EARTH
REF_FRAME      = TEME
TIME_SYSTEM    = UTC
MEAN_ELEMENT_THEORY = SGP/SGP4

EPOCH          = 2026-03-30T06:26:23.475264
MEAN_MOTION    = 14.67327305
ECCENTRICITY   = .05455896
INCLINATION    = 97.3416
RA_OF_ASC_NODE = 164.4587
ARG_OF_PERICENTER = 327.3121
MEAN_ANOMALY   = 29.5379

EPHEMERIS_TYPE = 0
CLASSIFICATION_TYPE = U
NORAD_CAT_ID   = 68205
ELEMENT_SET_NO = 999
REV_AT_EPOCH   = 207
BSTAR          = .47886987E-3
MEAN_MOTION_DOT = .32031E-3
MEAN_MOTION_DDOT = .1992278E-5

CCSDS_OMM_VERS = 2.0
CREATION_DATE  = 
ORIGINATOR     = 

OBJECT_NAME    = 2026-052J
OBJECT_ID      = 2026-052J
CENTER_NAME    = EARTH
REF_FRAME      = TEME
TIME_SYSTEM    = UTC
MEAN_ELEMENT_THEORY = SGP/SGP4

EPOCH          = 2026-03-30T06:20:27.107232
MEAN_MOTION    = 14.68314046
ECCENTRICITY   = .05420549
INCLINATION    = 97.3418
RA_OF_ASC_NODE = 164.4632
ARG_OF_PERICENTER = 327.3485
MEAN_ANOMALY   = 29.5253

EPHEMERIS_TYPE = 0
CLASSIFICATION_TYPE = U
NORAD_CAT_ID   = 68206
ELEMENT_SET_NO = 999
REV_AT_EPOCH   = 207
BSTAR          = .13118773E-2
MEAN_MOTION_DOT = .89853E-3
MEAN_MOTION_DDOT = .3085751E-5

CCSDS_OMM_VERS = 2.0
CREATION_DATE  = 
ORIGINATOR     = 

OBJECT_NAME    = STARLINK-36986
OBJECT_ID      = 2026-053A
CENTER_NAME    = EARTH
REF_FRAME      = TEME
TIME_SYSTEM    = UTC
MEAN_ELEMENT_THEORY = SGP/SGP4

EPOCH          = 2026-03-30T06:00:02.000160
MEAN_MOTION    = 15.80839681
ECCENTRICITY   = .00015416
INCLINATION    = 97.2843
RA_OF_ASC_NODE = 324.5168
ARG_OF_PERICENTER = 83.5907
MEAN_ANOMALY   = 315.6067

EPHEMERIS_TYPE = 0
CLASSIFICATION_TYPE = U
NORAD_CAT_ID   = 68207
ELEMENT_SET_NO = 999
REV_AT_EPOCH   = 331
BSTAR          = -.2485764E-3
MEAN_MOTION_DOT = -.4755E-3
MEAN_MOTION_DDOT = 0

CCSDS_OMM_VERS = 2.0
CREATION_DATE  = 
ORIGINATOR     = 

OBJECT_NAME    = STARLINK-37009
OBJECT_ID      = 2026-053B
CENTER_NAME    = EARTH
REF_FRAME      = TEME
TIME_SYSTEM    = UTC
MEAN_ELEMENT_THEORY = SGP/SGP4

EPOCH          = 2026-03-30T06:00:02.000160
MEAN_MOTION    = 15.80826130
ECCENTRICITY   = .00014702
INCLINATION    = 97.2848
RA_OF_ASC_NODE = 324.5181
ARG_OF_PERICENTER = 76.8131
MEAN_ANOMALY   = 326.6685

EPHEMERIS_TYPE = 0
CLASSIFICATION_TYPE = U
NORAD_CAT_ID   = 68208
ELEMENT_SET_NO = 999
REV_AT_EPOCH   = 331
BSTAR          = -.92180456E-4
MEAN_MOTION_DOT = -.17771E-3
MEAN_MOTION_DDOT = 0

