CZ-6A R/B               
1 68197U 26051B   26089.14826458  .00001148  00000+0  14918-3 0  9997
2 68197 142.0317 313.6765 0186788 198.2173 161.1785 14.56373520  2143
2026-052A               
1 68198U 26052A   26085.62264051  .00000448  00000+0  31529-4 0  9993
2 68198  97.5376 161.7059 0012977 225.7685 134.2480 15.09879016  1583
YUXING-3 06             
1 68199U 26052B   26089.26607807  .00007189  00000+0  44412-3 0  9991
2 68199  97.5375 165.2928 0012103 213.8596 146.1861 15.10113668  2130
2026-052C               
1 68200U 26052C   26089.26485736  .00006236  00000+0  38459-3 0  9995
2 68200  97.5370 165.2961 0011815 216.4606 143.5820 15.10235756  2123
2026-052D               
1 68201U 26052D   26089.26324109  .00009673  00000+0  59072-3 0  9994
2 68201  97.5363 165.2943 0011056 212.6449 147.4098 15.10450488  2138
2026-052E               
1 68202U 26052E   26089.26322097  .00009541  00000+0  58277-3 0  9999
2 68202  97.5376 165.2963 0010830 216.8133 143.2354 15.10449954  2135
2026-052F               
1 68203U 26052F   26089.26087126  .00009365  00000+0  56823-3 0  9990
2 68203  97.5358 165.3026 0010146 208.5470 151.5205 15.10705004  2137
2026-052G               
1 68204U 26052G   26089.26041750  .00009359  00000+0  56717-3 0  9999
2 68204  97.5376 165.2988 0009706 211.5822 148.4826 15.10752814  2134
KZ-11 R/B               
1 68205U 26052H   26089.26832726  .00032031  19923-5  47887-3 0  9992
2 68205  97.3416 164.4587 0545589 327.3121  29.5379 14.67327305  2075
2026-052J               
1 68206U 26052J   26089.26420263  .00089853  30858-5  13119-2 0  9996
2 68206  97.3418 164.4632 0542054 327.3485  29.5253 14.68314046  2076
STARLINK-36986          
1 68207U 26053A   26089.25002315 -.00047550  00000+0 -24858-3 0  9994
2 68207  97.2843 324.5168 0001541  83.5907 315.6067 15.80839681  3314
STARLINK-37009          
1 68208U 26053B   26089.25002315 -.00017771  00000+0 -92180-4 0  9991
2 68208  97.2848 324.5181 0001470  76.8131 326.6685 15.80826130  3313
